NOAA 2 (ITOS-D)
1  6235U 72082A   26103.05343891 -.00000028  00000-0  11638-3 0  9993
2  6235 102.0130 120.9010 0003690 296.3296  83.5147 12.53212972446795
SOLRAD-7B
1  1291U 65016D   26103.00341573 -.00000022  00000-0  22768-4 0  9990
2  1291  70.0818  14.8452 0022497 212.6701 147.3015 13.94967688107613
OSCAR-7 (AO-7)
1  7530U 74089B   26103.01997431 -.00000027  00000-0  12017-3 0  9993
2  7530 101.9944 115.5793 0011878 254.9949 130.3333 12.53697031352354
UOSAT-2 (UO-11)
1 14781U 84021B   26102.84276304  .00001039  00000-0  11175-3 0  9992
2 14781  97.8003  69.1778 0008761  48.1444 312.0521 14.90627268247399
FLTSATCOM-7 (USA-20)
1 17181U 86096A   26102.43098312  .00000038  00000-0  00000-0 0  9999
2 17181  12.7545 340.5004 0042778 330.1168 273.4020  0.98927087151319
FLTSATCOM-8 (USA-46)
1 20253U 89077A   26102.90219399 -.00000361  00000-0  00000+0 0  9996
2 20253  12.4400 351.5580 0007880   1.8187 298.1893  1.00267219259903
OSCAR 16 (PACSAT)
1 20439U 90005D   26103.06404595  .00000085  00000-0  47067-4 0  9998
2 20439  98.8590 137.1963 0011586  65.7843 322.2285 14.33915876892609
LUSAT (LO-19)
1 20442U 90005G   26103.01760019  .00000093  00000-0  49959-4 0  9994
2 20442  98.8902 123.0130 0012278  41.7362 318.4756 14.34102590893051
UFO 2 (USA 95)
1 22787U 93056A   26102.88102771  .00000132  00000-0  00000+0 0  9999
2 22787  11.8730   3.9126 0009302 348.6248 194.3219  1.00272117117894
EYESAT-1 (AO-27)
1 22825U 93061C   26103.11009073  .00000052  00000-0  37014-4 0  9997
2 22825  98.6920 170.5347 0007290 294.3660  65.6762 14.30924681697697
ITAMSAT (IO-26) 
1 22826U 93061D   26103.10885128  .00000063  00000-0  40623-4 0  9992
2 22826  98.6869 170.4443 0007735 275.2382  84.7918 14.31349903698009
UFO 3 (USA 104)
1 23132U 94035A   26102.94498799 -.00000088  00000-0  00000+0 0  9998
2 23132  12.3398   6.1063 0004486 306.3430 220.0117  1.00267414131043
RADIO ROSTO (RS-15)
1 23439U 94085A   26103.10688559 -.00000048  00000-0 -16245-3 0  9996
2 23439  64.8182  48.4665 0153984  15.6900 344.8720 11.27583786288561
UFO 4 (USA 108)
1 23467U 95003A   26103.00322345 -.00000015  00000-0  00000+0 0  9996
2 23467   9.7039  13.4473 0003529   3.2307 357.9766  1.00270878114303
UFO 7 (USA 127)
1 23967U 96042A   26103.08270045 -.00000246  00000-0  00000+0 0  9998
2 23967  11.0563  17.4345 0005262  93.3966  86.6109  1.00234815108834
JAS-2 (FO-29)
1 24278U 96046B   26103.02547654 -.00000020  00000-0  18970-4 0  9995
2 24278  98.5323 320.7915 0348801 265.5285  90.5938 13.53271053464355
UFO 8 (USA 138)
1 25258U 98016A   26102.62027150 -.00000183  00000-0  00000-0 0  9993
2 25258  11.0525  23.1525 0006394 275.3642 278.3098  1.00280328103204
TECHSAT-1B (GO-32)
1 25397U 98043D   26102.80834999  .00000049  00000-0  41263-4 0  9994
2 25397  99.0056  93.9253 0002179  65.1236 295.0168 14.24415460442024
ISS (ZARYA)
1 25544U 98067A   26102.84428289  .00005354  00000-0  10566-3 0  9994
2 25544  51.6320 263.4801 0006461 305.2591  54.7792 15.48888784561620
UFO 10 (USA 146)
1 25967U 99063A   26102.21016959 -.00000180  00000-0  00000-0 0  9990
2 25967   9.8476  27.5551 0003781 329.8544 255.8501  1.00275263 96685
PCSAT (NO-44)
1 26931U 01043C   26103.13266579  .00000096  00000-0  66763-4 0  9997
2 26931  67.0513  52.5282 0006704 264.3565  95.6773 14.31930518281134
PROBA-1
1 26958U 01049B   26103.21477433  .00002482  00000-0  16380-3 0  9994
2 26958  97.9633 109.4843 0054926 344.2241  15.7272 15.07253210333834
SAUDISAT-1C (SO-50)
1 27607U 02058C   26103.01246671  .00000569  00000-0  85208-4 0  9993
2 27607  64.5530 330.6131 0075512 274.3272  84.9208 14.82905711254797
CUTE-1 (CO-55)
1 27844U 03031E   26102.77587259  .00000228  00000-0  11780-3 0  9995
2 27844  98.6766 112.1528 0009950  22.6888 337.4729 14.24294868182369
CUBESAT XI-IV (CO-57)
1 27848U 03031J   26102.59108353  .00000205  00000-0  10924-3 0  9997
2 27848  98.6797 111.7354 0010185  40.5121 319.6814 14.23585632182043
MOZHAYETS-4 (RS-22)
1 27939U 03042A   26103.24305575  .00000900  00000-0  14720-3 0  9998
2 27939  98.3469 285.7720 0012429 112.2457  61.8120 14.73351523205988
UFO 11 (USA 174)
1 28117U 03057A   26102.89030109 -.00000095  00000-0  00000+0 0  9999
2 28117   8.9117  34.1450 0002978 330.8470 232.0278  1.00272145 81796
CUBESAT XI-V (CO-58)
1 28895U 05043F   26102.96637652  .00001050  00000-0  17362-3 0  9997
2 28895  98.2901 257.2544 0015032  56.0808 304.1825 14.72460685 92153
CAPE-1
1 31130U 07012P   26102.86617043  .00000912  00000-0  17309-3 0  9999
2 31130  98.4417  75.6369 0082317 275.2752  83.9061 14.64731554  8791
CUTE-1.7+APD II (CO-65)
1 32785U 08021C   26103.20380125  .00003340  00000-0  21629-3 0  9992
2 32785  97.8245  83.3182 0007193 244.7725 115.2758 15.08847341975391
SEEDS-II (CO-66)
1 32791U 08021J   26102.93338025  .00012276  00000-0  41778-3 0  9995
2 32791  97.7528  97.8346 0003965 142.6076 217.5441 15.30571091977300
YUBILEINY (RS-30)
1 32953U 08025A   26103.15261817  .00000002  00000-0 -55786-4 0  9998
2 32953  82.5060  35.8853 0020565  92.1685 268.1750 12.43177490811610
KKS-1 (KISEKI)
1 33499U 09002H   26103.08040997  .00000957  00000-0  12464-3 0  9999
2 33499  98.1188  24.5020 0008814 133.9187 226.2755 14.82956588926542
SWISSCUBE
1 35932U 09051B   26102.69028487  .00000731  00000-0  15441-3 0  9991
2 35932  98.4073   9.4330 0007997  61.2544 298.9460 14.62353942879582
BEESAT
1 35933U 09051C   26103.00837853  .00000596  00000-0  12977-3 0  9993
2 35933  98.4002   9.5270 0006556  73.1161 287.0757 14.61613060879662
ITUPSAT-1
1 35935U 09051E   26102.46278197  .00000585  00000-0  13104-3 0  9995
2 35935  98.4089   8.2336 0008787  83.1903 277.0296 14.60340820879141
PROBA-2
1 36037U 09059B   26102.97182906  .00000146  00000-0  44529-4 0  9994
2 36037  98.2449 287.2291 0014304 119.7538 240.5084 14.54814042872041
XIWANG-1 (HOPE-1)
1 36122U 09072B   26103.18863546 -.00000316  00000-0 -71074-3 0  9999
2 36122 100.3967  58.0764 0007896  26.3782 333.7732 13.16436460784450
EWS-G2 (GOES-15)
1 36411U 10008A   26103.03052691  .00000026  00000-0  00000+0 0  9999
2 36411   1.1044  84.1019 0003614  20.8633 170.5186  1.00271783 58983
TISAT-1
1 36799U 10035E   26102.27648897  .00013546  00000-0  47960-3 0  9993
2 36799  98.0666  43.1337 0004663 105.7824 254.3928 15.29264271857628
HORYU-2
1 38340U 12025D   26103.06946809  .00001834  00000-0  19314-3 0  9999
2 38340  98.2067 233.3991 0008740  42.7267 317.4628 14.90679655739023
AAUSAT-3
1 39087U 13009B   26102.99936863  .00000480  00000-0  16633-3 0  9998
2 39087  98.3703 288.2793 0012310  52.3788 307.8516 14.39858507687795
STRAND-1
1 39090U 13009E   26102.95879891  .00000230  00000-0  91600-4 0  9996
2 39090  98.3911 284.8022 0009765  69.4880 290.7354 14.37124568687699
CUBEBUG-1 (CAPITAN BETO)
1 39153U 13018D   26102.66760827  .00001953  00000-0  17553-3 0  9999
2 39153  98.1597 259.7384 0011875  11.8574 348.2924 14.96904712701269
PROBA-V
1 39159U 13021A   26102.82429019  .00000057  00000-0  43183-4 0  9995
2 39159  98.3549  84.6731 0003638 340.8006  19.3036 14.23583041671813
ZACUBE-1 (TSHEPISOSAT)
1 39417U 13066B   26103.14037819  .00002615  00000-0  20727-3 0  9990
2 39417  97.8125  65.1326 0045009 108.7172 251.8944 15.00659625670976
TRITON-1
1 39427U 13066M   26103.18935601  .00002675  00000-0  32451-3 0  9994
2 39427  97.8274  14.4829 0092120  86.1533 275.0206 14.81395846664469
DELFI-N3XT
1 39428U 13066N   26103.04037190  .00005050  00000-0  44926-3 0  9996
2 39428  97.8339  23.4524 0077266  64.0240 296.8913 14.94240457664892
GOMX-1
1 39430U 13066Q   26103.15042758  .00001380  00000-0  21482-3 0  9991
2 39430  97.6542 307.7045 0127684 286.6836  72.0388 14.69230913660364
VELOX-PII
1 39438U 13066Y   26102.81957367  .00002173  00000-0  21069-3 0  9994
2 39438  97.8690  54.1518 0052632 197.8318 162.1056 14.92738438668085
CUBEBUG-2 (LO-74)
1 39440U 13066AA  26102.80751968  .00002956  00000-0  27921-3 0  9997
2 39440  97.8854  51.5548 0056457 243.4880 116.0543 14.93327162667239
FUNCUBE-1 (AO-73)
1 39444U 13066AE  26102.67584861  .00005899  00000-0  37539-3 0  9997
2 39444  97.8222  72.8193 0038673  67.9052 292.6275 15.08561186669782
UWE-3
1 39446U 13066AG  26102.83363276  .00002830  00000-0  24829-3 0  9992
2 39446  97.8653  58.5188 0049454 175.2806 184.8891 14.96524939667804
UNISAT-6
1 40012U 14033C   26102.97418481  .00002094  00000-0  23104-3 0  9999
2 40012  97.7789 256.8815 0043952 283.6841  75.9484 14.87872130636469
DUCHIFAT-1
1 40021U 14033M   26103.12681075  .00044899  00000-0  67946-3 0  9999
2 40021  98.0566 153.7299 0002936 294.1485  65.9460 15.54552787645613
FUNCUBE-3 (EO-79)
1 40025U 14033R   26103.01226850  .00005567  00000-0  28320-3 0  9999
2 40025  98.1000 109.6356 0010784  90.3476 269.8991 15.17248009643149
SMAP
1 40376U 15003A   26103.12295618  .00000306  00000-0  68368-4 0  9999
2 40376  98.1302 111.1321 0001931  87.5291 272.6132 14.63382192598106
LILACSAT-2
1 40908U 15049K   26103.14751662  .00011865  00000-0  21799-3 0  9996
2 40908  97.4750 137.5902 0008794 122.8043 237.4055 15.49353311585672
LAPAN-A2 (IO-86)
1 40931U          25360.30710720  .00000000  00000-0  12800-3 0    00
2 40931   6.0006 332.5373 0012733 338.8432   8.1437 14.79075515    01
LQSAT
1 40958U 15057A   26103.22540723  .00000830  00000-0  12520-3 0  9995
2 40958  97.6681  99.8270 0018305 120.3478 239.9546 14.76701731565722
PRATHAM
1 41783U 16059A   26102.97586657  .00000522  00000-0  10045-3 0  9990
2 41783  97.8327 102.7052 0032671  67.4903 292.9755 14.67104854509953
ALSAT-1N
1 41789U 16059G   26103.21347341  .00000903  00000-0  16054-3 0  9998
2 41789  97.8033 109.4607 0027003  38.3731 321.9390 14.69200995510463
CAS-2T & KS-1Q
1 41847U 16066G   26102.71641182  .00000443  00000-0  72191-4 0  9999
2 41847  98.3841 179.1887 0341588 328.3885  29.7182 14.44552569495345
GOES-16
1 41866U 16071A   26103.06857374 -.00000088  00000-0  00000+0 0  9998
2 41866   0.1786  85.0185 0001634 248.2967 147.9454  1.00271637 34455
